ASTRA 2G                
1 40364U 14089A   17345.69772873  .00000143  00000-0  00000-0 0  9996
2 40364   0.0448  51.5077 0001605 323.7285 344.7740  1.00275029 10783
